{"type": "FeatureCollection", "features": [ {"type": "Feature", "properties": {"norad_id": 58662, "name": "TIANMU-1 21", "group": "weather", "lat": 35.65850038998891, "lon": 103.20931097375066, "alt_km": 472.55935928132294, "timestamp": "2025-12-21T03:56:50.501660+00:00", "meta": {"OBJECT_NAME": "TIANMU-1 21", "OBJECT_ID": "2023-208C", "EPOCH": "2025-12-20T19:57:03.855168", "MEAN_MOTION": 15.31710906, "ECCENTRICITY": 0.0006225, "INCLINATION": 97.4382, "RA_OF_ASC_NODE": 108.2535, "ARG_OF_PERICENTER": 226.188, "MEAN_ANOMALY": 133.8847, "EPHEMERIS_TYPE": 0, "CLASSIFICATION_TYPE": "U", "NORAD_CAT_ID": 58662, "ELEMENT_SET_NO": 999, "REV_AT_EPOCH": 11023, "BSTAR": 0.00024584, "MEAN_MOTION_DOT": 7.453e-05, "MEAN_MOTION_DDOT": 0}, "tle": {"line1": "1 58662U 23208C   25354.83129462  .00007453  00000+0  24584-3 0  9990", "line2": "2 58662  97.4382 108.2535 0006225 226.1880 133.8847 15.31710906110232"}}, "geometry": {"type": "Point", "coordinates": [103.20931097375066, 35.65850038998891]}}, {"type": "Feature", "properties": {"norad_id": 58663, "name": "TIANMU-1 22", "group": "weather", "lat": -18.202157870465516, "lon": -76.22151555515548, "alt_km": 486.36700404060866, "timestamp": "2025-12-21T03:56:50.501669+00:00", "meta": {"OBJECT_NAME": "TIANMU-1 22", "OBJECT_ID": "2023-208D", "EPOCH": "2025-12-20T19:13:19.971840", "MEAN_MOTION": 15.27729535, "ECCENTRICITY": 0.0002759, "INCLINATION": 97.4389, "RA_OF_ASC_NODE": 105.8782, "ARG_OF_PERICENTER": 244.2482, "MEAN_ANOMALY": 115.8473, "EPHEMERIS_TYPE": 0, "CLASSIFICATION_TYPE": "U", "NORAD_CAT_ID": 58663, "ELEMENT_SET_NO": 999, "REV_AT_EPOCH": 11006, "BSTAR": 0.000224, "MEAN_MOTION_DOT": 5.994e-05, "MEAN_MOTION_DDOT": 0}, "tle": {"line1": "1 58663U 23208D   25354.80092560  .00005994  00000+0  22400-3 0  9999", "line2": "2 58663  97.4389 105.8782 0002759 244.2482 115.8473 15.27729535110063"}}, "geometry": {"type": "Point", "coordinates": [-76.22151555515548, -18.202157870465516]}}, {"type": "Feature", "properties": {"norad_id": 58700, "name": "TIANMU-1 15", "group": "weather", "lat": -50.15503282939245, "lon": -12.434495011487298, "alt_km": 495.4759801436767, "timestamp": "2025-12-21T03:56:50.501679+00:00", "meta": {"OBJECT_NAME": "TIANMU-1 15", "OBJECT_ID": "2024-004A", "EPOCH": "2025-12-20T20:38:13.225056", "MEAN_MOTION": 15.2450453, "ECCENTRICITY": 0.0005954, "INCLINATION": 97.4621, "RA_OF_ASC_NODE": 176.2988, "ARG_OF_PERICENTER": 255.549, "MEAN_ANOMALY": 104.5086, "EPHEMERIS_TYPE": 0, "CLASSIFICATION_TYPE": "U", "NORAD_CAT_ID": 58700, "ELEMENT_SET_NO": 999, "REV_AT_EPOCH": 10858, "BSTAR": 0.00019378, "MEAN_MOTION_DOT": 4.693e-05, "MEAN_MOTION_DDOT": 0}, "tle": {"line1": "1 58700U 24004A   25354.85987529  .00004693  00000+0  19378-3 0  9994", "line2": "2 58700  97.4621 176.2988 0005954 255.5490 104.5086 15.24504530108580"}}, "geometry": {"type": "Point", "coordinates": [-12.434495011487298, -50.15503282939245]}}, {"type": "Feature", "properties": {"norad_id": 58701, "name": "TIANMU-1 16", "group": "weather", "lat": -46.51738067222999, "lon": -176.07873109658692, "alt_km": 497.31429233574545, "timestamp": "2025-12-21T03:56:50.501688+00:00", "meta": {"OBJECT_NAME": "TIANMU-1 16", "OBJECT_ID": "2024-004B", "EPOCH": "2025-12-20T20:16:37.121376", "MEAN_MOTION": 15.24531788, "ECCENTRICITY": 0.0004329, "INCLINATION": 97.456, "RA_OF_ASC_NODE": 175.6659, "ARG_OF_PERICENTER": 259.2142, "MEAN_ANOMALY": 100.8609, "EPHEMERIS_TYPE": 0, "CLASSIFICATION_TYPE": "U", "NORAD_CAT_ID": 58701, "ELEMENT_SET_NO": 999, "REV_AT_EPOCH": 10858, "BSTAR": 0.00019565, "MEAN_MOTION_DOT": 4.743e-05, "MEAN_MOTION_DDOT": 0}, "tle": {"line1": "1 58701U 24004B   25354.84487409  .00004743  00000+0  19565-3 0  9990", "line2": "2 58701  97.4560 175.6659 0004329 259.2142 100.8609 15.24531788108586"}}, "geometry": {"type": "Point", "coordinates": [-176.07873109658692, -46.51738067222999]}}, {"type": "Feature", "properties": {"norad_id": 58702, "name": "TIANMU-1 17", "group": "weather", "lat": 38.38814284098271, "lon": 170.44003850453237, "alt_km": 491.0893002278208, "timestamp": "2025-12-21T03:56:50.501707+00:00", "meta": {"OBJECT_NAME": "TIANMU-1 17", "OBJECT_ID": "2024-004C", "EPOCH": "2025-12-20T19:54:06.101856", "MEAN_MOTION": 15.24575257, "ECCENTRICITY": 0.0003518, "INCLINATION": 97.4595, "RA_OF_ASC_NODE": 176.0646, "ARG_OF_PERICENTER": 261.1338, "MEAN_ANOMALY": 98.9501, "EPHEMERIS_TYPE": 0, "CLASSIFICATION_TYPE": "U", "NORAD_CAT_ID": 58702, "ELEMENT_SET_NO": 999, "REV_AT_EPOCH": 10857, "BSTAR": 0.00018575, "MEAN_MOTION_DOT": 4.504e-05, "MEAN_MOTION_DDOT": 0}, "tle": {"line1": "1 58702U 24004C   25354.82923729  .00004504  00000+0  18575-3 0  9994", "line2": "2 58702  97.4595 176.0646 0003518 261.1338  98.9501 15.24575257108570"}}, "geometry": {"type": "Point", "coordinates": [170.44003850453237, 38.38814284098271]}}, {"type": "Feature", "properties": {"norad_id": 58703, "name": "TIANMU-1 18", "group": "weather", "lat": 49.446559132892425, "lon": 5.405314868571366, "alt_km": 488.85897486564863, "timestamp": "2025-12-21T03:56:50.501725+00:00", "meta": {"OBJECT_NAME": "TIANMU-1 18", "OBJECT_ID": "2024-004D", "EPOCH": "2025-12-20T21:04:41.899008", "MEAN_MOTION": 15.2456056, "ECCENTRICITY": 0.0002861, "INCLINATION": 97.4612, "RA_OF_ASC_NODE": 176.3104, "ARG_OF_PERICENTER": 258.4587, "MEAN_ANOMALY": 101.6329, "EPHEMERIS_TYPE": 0, "CLASSIFICATION_TYPE": "U", "NORAD_CAT_ID": 58703, "ELEMENT_SET_NO": 999, "REV_AT_EPOCH": 10858, "BSTAR": 0.00018432, "MEAN_MOTION_DOT": 4.467e-05, "MEAN_MOTION_DDOT": 0}, "tle": {"line1": "1 58703U 24004D   25354.87826272  .00004467  00000+0  18432-3 0  9995", "line2": "2 58703  97.4612 176.3104 0002861 258.4587 101.6329 15.24560560108580"}}, "geometry": {"type": "Point", "coordinates": [5.405314868571366, 49.446559132892425]}}, {"type": "Feature", "properties": {"norad_id": 58990, "name": "INSAT-3DS", "group": "weather", "lat": 0.01588950425873978, "lon": -128.71245828271267, "alt_km": 35782.50826319232, "timestamp": "2025-12-21T03:56:50.501742+00:00", "meta": {"OBJECT_NAME": "INSAT-3DS", "OBJECT_ID": "2024-033A", "EPOCH": "2025-12-20T19:46:51.361248", "MEAN_MOTION": 1.00272187, "ECCENTRICITY": 0.0001096, "INCLINATION": 0.0536, "RA_OF_ASC_NODE": 103.7768, "ARG_OF_PERICENTER": 169.1255, "MEAN_ANOMALY": 195.57, "EPHEMERIS_TYPE": 0, "CLASSIFICATION_TYPE": "U", "NORAD_CAT_ID": 58990, "ELEMENT_SET_NO": 999, "REV_AT_EPOCH": 4528, "BSTAR": 0, "MEAN_MOTION_DOT": -1.33e-06, "MEAN_MOTION_DDOT": 0}, "tle": {"line1": "1 58990U 24033A   25354.82420557 -.00000133  00000+0  00000+0 0  9991", "line2": "2 58990   0.0536 103.7768 0001096 169.1255 195.5700  1.00272187 45288"}}, "geometry": {"type": "Point", "coordinates": [-128.71245828271267, 0.01588950425873978]}}, {"type": "Feature", "properties": {"norad_id": 59051, "name": "METEOR-M2 4", "group": "weather", "lat": 80.8631241143676, "lon": -156.33296370030033, "alt_km": 812.1057145294762, "timestamp": "2025-12-21T03:56:50.501758+00:00", "meta": {"OBJECT_NAME": "METEOR-M2 4", "OBJECT_ID": "2024-039A", "EPOCH": "2025-12-20T20:45:34.881120", "MEAN_MOTION": 14.2240243, "ECCENTRICITY": 0.0006605, "INCLINATION": 98.6778, "RA_OF_ASC_NODE": 311.6469, "ARG_OF_PERICENTER": 334.5689, "MEAN_ANOMALY": 25.5163, "EPHEMERIS_TYPE": 0, "CLASSIFICATION_TYPE": "U", "NORAD_CAT_ID": 59051, "ELEMENT_SET_NO": 999, "REV_AT_EPOCH": 9391, "BSTAR": 2.1219e-05, "MEAN_MOTION_DOT": 4e-08, "MEAN_MOTION_DDOT": 0}, "tle": {"line1": "1 59051U 24039A   25354.86498705  .00000004  00000+0  21219-4 0  9996", "line2": "2 59051  98.6778 311.6469 0006605 334.5689  25.5163 14.22402430 93918"}}, "geometry": {"type": "Point", "coordinates": [-156.33296370030033, 80.8631241143676]}}, {"type": "Feature", "properties": {"norad_id": 60133, "name": "GOES 19", "group": "weather", "lat": -0.010775779420592891, "lon": 74.00803553812268, "alt_km": 35787.9581656537, "timestamp": "2025-12-21T03:56:50.501775+00:00", "meta": {"OBJECT_NAME": "GOES 19", "OBJECT_ID": "2024-119A", "EPOCH": "2025-12-20T18:00:17.089920", "MEAN_MOTION": 1.00270714, "ECCENTRICITY": 0.0001073, "INCLINATION": 0.0038, "RA_OF_ASC_NODE": 234.3442, "ARG_OF_PERICENTER": 90.0677, "MEAN_ANOMALY": 320.0475, "EPHEMERIS_TYPE": 0, "CLASSIFICATION_TYPE": "U", "NORAD_CAT_ID": 60133, "ELEMENT_SET_NO": 999, "REV_AT_EPOCH": 517, "BSTAR": 0, "MEAN_MOTION_DOT": -2.25e-06, "MEAN_MOTION_DDOT": 0}, "tle": {"line1": "1 60133U 24119A   25354.75019780 -.00000225  00000+0  00000+0 0  9994", "line2": "2 60133   0.0038 234.3442 0001073  90.0677 320.0475  1.00270714  5174"}}, "geometry": {"type": "Point", "coordinates": [74.00803553812268, -0.010775779420592891]}}, {"type": "Feature", "properties": {"norad_id": 65815, "name": "FENGYUN 3H", "group": "weather", "lat": -73.66999468378799, "lon": 83.2305678271527, "alt_km": 833.4242125924538, "timestamp": "2025-12-21T03:56:50.501844+00:00", "meta": {"OBJECT_NAME": "FENGYUN 3H", "OBJECT_ID": "2025-219A", "EPOCH": "2025-12-20T18:17:20.244768", "MEAN_MOTION": 14.19906627, "ECCENTRICITY": 7.37e-05, "INCLINATION": 98.6595, "RA_OF_ASC_NODE": 294.1785, "ARG_OF_PERICENTER": 105.4565, "MEAN_ANOMALY": 254.6693, "EPHEMERIS_TYPE": 0, "CLASSIFICATION_TYPE": "U", "NORAD_CAT_ID": 65815, "ELEMENT_SET_NO": 999, "REV_AT_EPOCH": 1206, "BSTAR": 3.7814e-05, "MEAN_MOTION_DOT": 3.7e-07, "MEAN_MOTION_DDOT": 0}, "tle": {"line1": "1 65815U 25219A   25354.76203987  .00000037  00000+0  37814-4 0  9991", "line2": "2 65815  98.6595 294.1785 0000737 105.4565 254.6693 14.19906627 12067"}}, "geometry": {"type": "Point", "coordinates": [83.2305678271527, -73.66999468378799]}}]}